$$SOE
2460728.500000000, A.D. 2025-Feb-22 00:00:00.0000, 4.331116508648492E+08, 1.749515143817245E+08, -6.148682737013321E+07,
2460735.500000000, A.D. 2025-Mar-01 00:00:00.0000, 4.285980866966298E+08, 1.841152688503229E+08, -6.280504226643830E+07,
2460742.500000000, A.D. 2025-Mar-08 00:00:00.0000, 4.238849560398114E+08, 1.931933069315270E+08, -6.409401030787729E+07,
2460749.500000000, A.D. 2025-Mar-15 00:00:00.0000, 4.189738810350116E+08, 2.021811435009143E+08, -6.535304445037904E+07,
2460756.500000000, A.D. 2025-Mar-22 00:00:00.0000, 4.138665936743113E+08, 2.110743159171490E+08, -6.658146878385297E+07,
2460763.500000000, A.D. 2025-Mar-29 00:00:00.0000, 4.085649350928989E+08, 2.198683851969678E+08, -6.777861914381367E+07,
2460770.500000000, A.D. 2025-Apr-05 00:00:00.0000, 4.030708564613110E+08, 2.285589381103352E+08, -6.894384380558112E+07,
2460777.500000000, A.D. 2025-Apr-12 00:00:00.0000, 3.973864195485746E+08, 2.371415902967738E+08, -7.007650407518789E+07,
2460784.500000000, A.D. 2025-Apr-19 00:00:00.0000, 3.915137967664293E+08, 2.456119895188146E+08, -7.117597483131672E+07,
2460791.500000000, A.D. 2025-Apr-26 00:00:00.0000, 3.854552709640056E+08, 2.539658188465265E+08, -7.224164505926457E+07,
2460798.500000000, A.D. 2025-May-03 00:00:00.0000, 3.792132350844163E+08, 2.621987997890548E+08, -7.327291838520816E+07,
2460805.500000000, A.D. 2025-May-10 00:00:00.0000, 3.727901917097113E+08, 2.703066953784206E+08, -7.426921361202627E+07,
2460812.500000000, A.D. 2025-May-17 00:00:00.0000, 3.661887525289661E+08, 2.782853131610537E+08, -7.522996526269846E+07,
2460819.500000000, A.D. 2025-May-24 00:00:00.0000, 3.594116379018732E+08, 2.861305080390534E+08, -7.615462415100646E+07,
2460826.500000000, A.D. 2025-May-31 00:00:00.0000, 3.524616769346073E+08, 2.938381852681227E+08, -7.704265799183285E+07,
2460833.500000000, A.D. 2025-Jun-07 00:00:00.0000, 3.453418076653417E+08, 3.014043048114915E+08, -7.789355191481669E+07,
2460840.500000000, A.D. 2025-Jun-14 00:00:00.0000, 3.380550749914902E+08, 3.088248863782154E+08, -7.870680871739188E+07,
2460847.500000000, A.D. 2025-Jun-21 00:00:00.0000, 3.306046275547745E+08, 3.160960118724833E+08, -7.948194923551959E+07,
2460854.500000000, A.D. 2025-Jun-28 00:00:00.0000, 3.229937167137035E+08, 3.232138270144653E+08, -8.021851297463223E+07,
2460861.500000000, A.D. 2025-Jul-05 00:00:00.0000, 3.152256960857940E+08, 3.301745442832393E+08, -8.091605868433017E+07,
2460868.500000000, A.D. 2025-Jul-12 00:00:00.0000, 3.073040204674145E+08, 3.369744463717015E+08, -8.157416483225739E+07,
2460875.500000000, A.D. 2025-Jul-19 00:00:00.0000, 2.992322443207883E+08, 3.436098895740796E+08, -8.219243004069996E+07,
2460882.500000000, A.D. 2025-Jul-26 00:00:00.0000, 2.910140200386845E+08, 3.500773070448992E+08, -8.277047350903106E+07,
2460889.500000000, A.D. 2025-Aug-02 00:00:00.0000, 2.826530960531216E+08, 3.563732119460304E+08, -8.330793542542225E+07,
2460896.500000000, A.D. 2025-Aug-09 00:00:00.0000, 2.741533148125681E+08, 3.624942004616169E+08, -8.380447737015727E+07,
2460903.500000000, A.D. 2025-Aug-16 00:00:00.0000, 2.655186107054363E+08, 3.684369546116392E+08, -8.425978272146159E+07,
2460910.500000000, A.D. 2025-Aug-23 00:00:00.0000, 2.567530082230036E+08, 3.741982448746728E+08, -8.467355708780998E+07,
2460917.500000000, A.D. 2025-Aug-30 00:00:00.0000, 2.478606206913814E+08, 3.797749333284134E+08, -8.504552873709854E+07,
2460924.500000000, A.D. 2025-Sep-06 00:00:00.0000, 2.388456481549026E+08, 3.851639783022220E+08, -8.537544880924150E+07,
2460931.500000000, A.D. 2025-Sep-13 00:00:00.0000, 2.297123727394594E+08, 3.903624380542166E+08, -8.566309136011715E+07,
2460938.500000000, A.D. 2025-Sep-20 00:00:00.0000, 2.204651547715046E+08, 3.953674718278736E+08, -8.590825367154805E+07,
2460945.500000000, A.D. 2025-Sep-27 00:00:00.0000, 2.111084307169306E+08, 4.001763413967587E+08, -8.611075667064571E+07,
2460952.500000000, A.D. 2025-Oct-04 00:00:00.0000, 2.016467109270700E+08, 4.047864136308172E+08, -8.627044522877651E+07,
2460959.500000000, A.D. 2025-Oct-11 00:00:00.0000, 1.920845768212504E+08, 4.091951631359591E+08, -8.638718838205880E+07,
2460966.500000000, A.D. 2025-Oct-18 00:00:00.0000, 1.824266777928982E+08, 4.134001746878458E+08, -8.646087952113990E+07,
2460973.500000000, A.D. 2025-Oct-25 00:00:00.0000, 1.726777279822322E+08, 4.173991454664727E+08, -8.649143656156884E+07,
2460980.500000000, A.D. 2025-Nov-01 00:00:00.0000, 1.628425029586685E+08, 4.211898871029093E+08, -8.647880209664750E+07,
2460987.500000000, A.D. 2025-Nov-08 00:00:00.0000, 1.529258363514135E+08, 4.247703275029254E+08, -8.642294353813125E+07,
2460994.500000000, A.D. 2025-Nov-15 00:00:00.0000, 1.429326165802857E+08, 4.281385123853879E+08, -8.632385326286522E+07,
2461001.500000000, A.D. 2025-Nov-22 00:00:00.0000, 1.328677840940032E+08, 4.312926067524756E+08, -8.618154878422584E+07,
2461008.500000000, A.D. 2025-Nov-29 00:00:00.0000, 1.227363289682559E+08, 4.342308974238160E+08, -8.599607284170635E+07,
2461015.500000000, A.D. 2025-Dec-06 00:00:00.0000, 1.125432865919250E+08, 4.369517964935200E+08, -8.576749321029268E+07,
2461022.500000000, A.D. 2025-Dec-13 00:00:00.0000, 1.022937318782467E+08, 4.394538423345569E+08, -8.549590254344299E+07,
2461029.500000000, A.D. 2025-Dec-20 00:00:00.0000, 9.199277549791673E+07, 4.417356991729559E+08, -8.518141848670049E+07,
2461036.500000000, A.D. 2025-Dec-27 00:00:00.0000, 8.164556106672986E+07, 4.437961578218794E+08, -8.482418375227340E+07,
2461043.500000000, A.D. 2026-Jan-03 00:00:00.0000, 7.125726183394572E+07, 4.456341369572721E+08, -8.442436607080908E+07,
2461050.500000000, A.D. 2026-Jan-10 00:00:00.0000, 6.083307698611519E+07, 4.472486842547636E+08, -8.398215808588849E+07,
2461057.500000000, A.D. 2026-Jan-17 00:00:00.0000, 5.037822780450219E+07, 4.486389772958987E+08, -8.349777722037502E+07,
2461064.500000000, A.D. 2026-Jan-24 00:00:00.0000, 3.989795376013799E+07, 4.498043242663440E+08, -8.297146552029970E+07,
2461071.500000000, A.D. 2026-Jan-31 00:00:00.0000, 2.939750857630645E+07, 4.507441644387147E+08, -8.240348947936831E+07,
2461078.500000000, A.D. 2026-Feb-07 00:00:00.0000, 1.888215632633917E+07, 4.514580683827381E+08, -8.179413985465220E+07,
2461085.500000000, A.D. 2026-Feb-14 00:00:00.0000, 8.357167825954100E+06, 4.519457378876702E+08, -8.114373149812976E+07,
2461092.500000000, A.D. 2026-Feb-21 00:00:00.0000, -2.172182286352171E+06, 4.522070061748419E+08, -8.045260319286636E+07,
2461099.500000000, A.D. 2026-Feb-28 00:00:00.0000, -1.270061885907816E+07, 4.522418395552707E+08, -7.972111730082320E+07,
2461106.500000000, A.D. 2026-Mar-07 00:00:00.0000, -2.322287197880345E+07, 4.520503385816665E+08, -7.894965919289556E+07,
2461113.500000000, A.D. 2026-Mar-14 00:00:00.0000, -3.373368238216454E+07, 4.516327363604825E+08, -7.813863690581094E+07,
2461120.500000000, A.D. 2026-Mar-21 00:00:00.0000, -4.422780474160094E+07, 4.509893969249057E+08, -7.728848095369132E+07,
2461127.500000000, A.D. 2026-Mar-28 00:00:00.0000, -5.470001082746489E+07, 4.501208147003092E+08, -7.639964402718905E+07,
2461134.500000000, A.D. 2026-Apr-04 00:00:00.0000, -6.514509314374775E+07, 4.490276140975839E+08, -7.547260060417800E+07,
2461141.500000000, A.D. 2026-Apr-11 00:00:00.0000, -7.555786875763147E+07, 4.477105488759165E+08, -7.450784652699363E+07,
2461148.500000000, A.D. 2026-Apr-18 00:00:00.0000, -8.593318315737861E+07, 4.461705012702763E+08, -7.350589856190817E+07,
2461155.500000000, A.D. 2026-Apr-25 00:00:00.0000, -9.626591408615753E+07, 4.444084809000005E+08, -7.246729394417985E+07,
2461162.500000000, A.D. 2026-May-02 00:00:00.0000, -1.065509753146968E+08, 4.424256234299673E+08, -7.139258991396280E+07,
2461169.500000000, A.D. 2026-May-09 00:00:00.0000, -1.167833202226713E+08, 4.402231889189736E+08, -7.028236325984211E+07,
2461176.500000000, A.D. 2026-May-16 00:00:00.0000, -1.269579448067911E+08, 4.378025599952267E+08, -6.913720989358681E+07,
2461183.500000000, A.D. 2026-May-23 00:00:00.0000, -1.370698900608722E+08, 4.351652408849871E+08, -6.795774437838490E+07,
2461190.500000000, A.D. 2026-May-30 00:00:00.0000, -1.471142458027116E+08, 4.323128576199575E+08, -6.674459919574560E+07,
2461197.500000000, A.D. 2026-Jun-06 00:00:00.0000, -1.570861562592472E+08, 4.292471561544107E+08, -6.549842399078435E+07,
2461204.500000000, A.D. 2026-Jun-13 00:00:00.0000, -1.669808237399860E+08, 4.259699985936322E+08, -6.421988511645743E+07,
2461211.500000000, A.D. 2026-Jun-20 00:00:00.0000, -1.767935108970703E+08, 4.224833604656188E+08, -6.290966519342706E+07,
2461218.500000000, A.D. 2026-Jun-27 00:00:00.0000, -1.865195432657499E+08, 4.187893287019049E+08, -6.156846255915849E+07,
2461225.500000000, A.D. 2026-Jul-04 00:00:00.0000, -1.961543120809940E+08, 4.148900995563950E+08, -6.019699067042144E+07,
2461232.500000000, A.D. 2026-Jul-11 00:00:00.0000, -2.056932771130489E+08, 4.107879763340449E+08, -5.879597749411462E+07,
2461239.500000000, A.D. 2026-Jul-18 00:00:00.0000, -2.151319694265276E+08, 4.064853669594104E+08, -5.736616489381979E+07,
2461246.500000000, A.D. 2026-Jul-25 00:00:00.0000, -2.244659940361729E+08, 4.019847813924316E+08, -5.590830801515947E+07,
2461253.500000000, A.D. 2026-Aug-01 00:00:00.0000, -2.336910324090054E+08, 3.972888288481948E+08, -5.442317467935145E+07,
2461260.500000000, A.D. 2026-Aug-08 00:00:00.0000, -2.428028445960326E+08, 3.924002147897290E+08, -5.291154480859172E+07,
2461267.500000000, A.D. 2026-Aug-15 00:00:00.0000, -2.517972705770050E+08, 3.873217381492581E+08, -5.137420988548927E+07,
2461274.500000000, A.D. 2026-Aug-22 00:00:00.0000, -2.606702315786542E+08, 3.820562900049176E+08, -4.981197227809121E+07,
2461281.500000000, A.D. 2026-Aug-29 00:00:00.0000, -2.694177336546319E+08, 3.766068523471609E+08, -4.822564433409557E+07,
2461288.500000000, A.D. 2026-Sep-05 00:00:00.0000, -2.780358713907049E+08, 3.709764940718793E+08, -4.661604767489521E+07,
2461295.500000000, A.D. 2026-Sep-12 00:00:00.0000, -2.865208292793870E+08, 3.651683666990096E+08, -4.498401271090245E+07,
$$EOE